<?xml version="1.0" encoding="UTF-8"?>
<ndm xmlns:xsi="http://www.w3.org/2001/XMLSchema-instance" xsi:noNamespaceSchemaLocation="https://sanaregistry.org/r/ndmxml_unqualified/ndmxml-2.0.0-master-2.0.xsd">
<omm id="CCSDS_OMM_VERS" version="2.0">
<header><CREATION_DATE/><ORIGINATOR/></header><body><segment><metadata><OBJECT_NAME>IRIDIUM 26</OBJECT_NAME><OBJECT_ID>1997-043A</OBJECT_ID><CENTER_NAME>EARTH</CENTER_NAME><REF_FRAME>TEME</REF_FRAME><TIME_SYSTEM>UTC</TIME_SYSTEM><MEAN_ELEMENT_THEORY>SGP4</MEAN_ELEMENT_THEORY></metadata><data><meanElements><EPOCH>2025-04-26T22:33:58.433760</EPOCH><MEAN_MOTION>14.37098008</MEAN_MOTION><ECCENTRICITY>.0002113</ECCENTRICITY><INCLINATION>86.3934</INCLINATION><RA_OF_ASC_NODE>132.1546</RA_OF_ASC_NODE><ARG_OF_PERICENTER>91.7008</ARG_OF_PERICENTER><MEAN_ANOMALY>268.4431</MEAN_ANOMALY></meanElements><tleParameters><EPHEMERIS_TYPE>0</EPHEMERIS_TYPE><CLASSIFICATION_TYPE>U</CLASSIFICATION_TYPE><NORAD_CAT_ID>24903</NORAD_CAT_ID><ELEMENT_SET_NO>999</ELEMENT_SET_NO><REV_AT_EPOCH>44938</REV_AT_EPOCH><BSTAR>.24823E-3</BSTAR><MEAN_MOTION_DOT>.756E-5</MEAN_MOTION_DOT><MEAN_MOTION_DDOT>0</MEAN_MOTION_DDOT></tleParameters></data></segment></body></omm>
<omm id="CCSDS_OMM_VERS" version="2.0">
<header><CREATION_DATE/><ORIGINATOR/></header><body><segment><metadata><OBJECT_NAME>IRIDIUM 22</OBJECT_NAME><OBJECT_ID>1997-043E</OBJECT_ID><CENTER_NAME>EARTH</CENTER_NAME><REF_FRAME>TEME</REF_FRAME><TIME_SYSTEM>UTC</TIME_SYSTEM><MEAN_ELEMENT_THEORY>SGP4</MEAN_ELEMENT_THEORY></metadata><data><meanElements><EPOCH>2025-04-26T23:12:47.820096</EPOCH><MEAN_MOTION>14.35917736</MEAN_MOTION><ECCENTRICITY>.0002302</ECCENTRICITY><INCLINATION>86.3945</INCLINATION><RA_OF_ASC_NODE>135.6369</RA_OF_ASC_NODE><ARG_OF_PERICENTER>91.9789</ARG_OF_PERICENTER><MEAN_ANOMALY>268.1671</MEAN_ANOMALY></meanElements><tleParameters><EPHEMERIS_TYPE>0</EPHEMERIS_TYPE><CLASSIFICATION_TYPE>U</CLASSIFICATION_TYPE><NORAD_CAT_ID>24907</NORAD_CAT_ID><ELEMENT_SET_NO>999</ELEMENT_SET_NO><REV_AT_EPOCH>44942</REV_AT_EPOCH><BSTAR>.21529E-3</BSTAR><MEAN_MOTION_DOT>.644E-5</MEAN_MOTION_DOT><MEAN_MOTION_DDOT>0</MEAN_MOTION_DDOT></tleParameters></data></segment></body></omm>
<omm id="CCSDS_OMM_VERS" version="2.0">
<header><CREATION_DATE/><ORIGINATOR/></header><body><segment><metadata><OBJECT_NAME>DUMMY MASS 1</OBJECT_NAME><OBJECT_ID>1997-048A</OBJECT_ID><CENTER_NAME>EARTH</CENTER_NAME><REF_FRAME>TEME</REF_FRAME><TIME_SYSTEM>UTC</TIME_SYSTEM><MEAN_ELEMENT_THEORY>SGP4</MEAN_ELEMENT_THEORY></metadata><data><meanElements><EPOCH>2025-04-27T13:00:04.054176</EPOCH><MEAN_MOTION>14.86942976</MEAN_MOTION><ECCENTRICITY>.0005641</ECCENTRICITY><INCLINATION>86.3367</INCLINATION><RA_OF_ASC_NODE>158.7430</RA_OF_ASC_NODE><ARG_OF_PERICENTER>346.9977</ARG_OF_PERICENTER><MEAN_ANOMALY>13.1101</MEAN_ANOMALY></meanElements><tleParameters><EPHEMERIS_TYPE>0</EPHEMERIS_TYPE><CLASSIFICATION_TYPE>U</CLASSIFICATION_TYPE><NORAD_CAT_ID>24925</NORAD_CAT_ID><ELEMENT_SET_NO>999</ELEMENT_SET_NO><REV_AT_EPOCH>49784</REV_AT_EPOCH><BSTAR>.79689E-4</BSTAR><MEAN_MOTION_DOT>.74E-5</MEAN_MOTION_DOT><MEAN_MOTION_DDOT>0</MEAN_MOTION_DDOT></tleParameters></data></segment></body></omm>
<omm id="CCSDS_OMM_VERS" version="2.0">
<header><CREATION_DATE/><ORIGINATOR/></header><body><segment><metadata><OBJECT_NAME>DUMMY MASS 2</OBJECT_NAME><OBJECT_ID>1997-048B</OBJECT_ID><CENTER_NAME>EARTH</CENTER_NAME><REF_FRAME>TEME</REF_FRAME><TIME_SYSTEM>UTC</TIME_SYSTEM><MEAN_ELEMENT_THEORY>SGP4</MEAN_ELEMENT_THEORY></metadata><data><meanElements><EPOCH>2025-04-27T03:48:48.692160</EPOCH><MEAN_MOTION>14.86695152</MEAN_MOTION><ECCENTRICITY>.0006943</ECCENTRICITY><INCLINATION>86.3370</INCLINATION><RA_OF_ASC_NODE>160.5163</RA_OF_ASC_NODE><ARG_OF_PERICENTER>358.4030</ARG_OF_PERICENTER><MEAN_ANOMALY>1.7171</MEAN_ANOMALY></meanElements><tleParameters><EPHEMERIS_TYPE>0</EPHEMERIS_TYPE><CLASSIFICATION_TYPE>U</CLASSIFICATION_TYPE><NORAD_CAT_ID>24926</NORAD_CAT_ID><ELEMENT_SET_NO>999</ELEMENT_SET_NO><REV_AT_EPOCH>49756</REV_AT_EPOCH><BSTAR>.77068E-4</BSTAR><MEAN_MOTION_DOT>.713E-5</MEAN_MOTION_DOT><MEAN_MOTION_DDOT>0</MEAN_MOTION_DDOT></tleParameters></data></segment></body></omm>
<omm id="CCSDS_OMM_VERS" version="2.0">
<header><CREATION_DATE/><ORIGINATOR/></header><body><segment><metadata><OBJECT_NAME>IRIDIUM 29</OBJECT_NAME><OBJECT_ID>1997-051A</OBJECT_ID><CENTER_NAME>EARTH</CENTER_NAME><REF_FRAME>TEME</REF_FRAME><TIME_SYSTEM>UTC</TIME_SYSTEM><MEAN_ELEMENT_THEORY>SGP4</MEAN_ELEMENT_THEORY></metadata><data><meanElements><EPOCH>2025-04-26T15:50:13.543008</EPOCH><MEAN_MOTION>14.36420893</MEAN_MOTION><ECCENTRICITY>.0002496</ECCENTRICITY><INCLINATION>86.3992</INCLINATION><RA_OF_ASC_NODE>165.5019</RA_OF_ASC_NODE><ARG_OF_PERICENTER>92.4526</ARG_OF_PERICENTER><MEAN_ANOMALY>267.6957</MEAN_ANOMALY></meanElements><tleParameters><EPHEMERIS_TYPE>0</EPHEMERIS_TYPE><CLASSIFICATION_TYPE>U</CLASSIFICATION_TYPE><NORAD_CAT_ID>24944</NORAD_CAT_ID><ELEMENT_SET_NO>999</ELEMENT_SET_NO><REV_AT_EPOCH>44587</REV_AT_EPOCH><BSTAR>.22133E-3</BSTAR><MEAN_MOTION_DOT>.668E-5</MEAN_MOTION_DOT><MEAN_MOTION_DDOT>0</MEAN_MOTION_DDOT></tleParameters></data></segment></body></omm>
<omm id="CCSDS_OMM_VERS" version="2.0">
<header><CREATION_DATE/><ORIGINATOR/></header><body><segment><metadata><OBJECT_NAME>IRIDIUM 33</OBJECT_NAME><OBJECT_ID>1997-051C</OBJECT_ID><CENTER_NAME>EARTH</CENTER_NAME><REF_FRAME>TEME</REF_FRAME><TIME_SYSTEM>UTC</TIME_SYSTEM><MEAN_ELEMENT_THEORY>SGP4</MEAN_ELEMENT_THEORY></metadata><data><meanElements><EPOCH>2025-04-26T20:44:37.898592</EPOCH><MEAN_MOTION>14.34859782</MEAN_MOTION><ECCENTRICITY>.0005878</ECCENTRICITY><INCLINATION>86.3908</INCLINATION><RA_OF_ASC_NODE>164.6725</RA_OF_ASC_NODE><ARG_OF_PERICENTER>235.9604</ARG_OF_PERICENTER><MEAN_ANOMALY>124.1034</MEAN_ANOMALY></meanElements><tleParameters><EPHEMERIS_TYPE>0</EPHEMERIS_TYPE><CLASSIFICATION_TYPE>U</CLASSIFICATION_TYPE><NORAD_CAT_ID>24946</NORAD_CAT_ID><ELEMENT_SET_NO>999</ELEMENT_SET_NO><REV_AT_EPOCH>44538</REV_AT_EPOCH><BSTAR>.15092E-3</BSTAR><MEAN_MOTION_DOT>.448E-5</MEAN_MOTION_DOT><MEAN_MOTION_DDOT>0</MEAN_MOTION_DDOT></tleParameters></data></segment></body></omm>
<omm id="CCSDS_OMM_VERS" version="2.0">
<header><CREATION_DATE/><ORIGINATOR/></header><body><segment><metadata><OBJECT_NAME>IRIDIUM 28</OBJECT_NAME><OBJECT_ID>1997-051E</OBJECT_ID><CENTER_NAME>EARTH</CENTER_NAME><REF_FRAME>TEME</REF_FRAME><TIME_SYSTEM>UTC</TIME_SYSTEM><MEAN_ELEMENT_THEORY>SGP4</MEAN_ELEMENT_THEORY></metadata><data><meanElements><EPOCH>2025-04-26T16:00:01.369728</EPOCH><MEAN_MOTION>14.37346848</MEAN_MOTION><ECCENTRICITY>.0001878</ECCENTRICITY><INCLINATION>86.3995</INCLINATION><RA_OF_ASC_NODE>163.0465</RA_OF_ASC_NODE><ARG_OF_PERICENTER>97.2805</ARG_OF_PERICENTER><MEAN_ANOMALY>262.8606</MEAN_ANOMALY></meanElements><tleParameters><EPHEMERIS_TYPE>0</EPHEMERIS_TYPE><CLASSIFICATION_TYPE>U</CLASSIFICATION_TYPE><NORAD_CAT_ID>24948</NORAD_CAT_ID><ELEMENT_SET_NO>999</ELEMENT_SET_NO><REV_AT_EPOCH>44644</REV_AT_EPOCH><BSTAR>.196E-3</BSTAR><MEAN_MOTION_DOT>.604E-5</MEAN_MOTION_DOT><MEAN_MOTION_DDOT>0</MEAN_MOTION_DDOT></tleParameters></data></segment></body></omm>
<omm id="CCSDS_OMM_VERS" version="2.0">
<header><CREATION_DATE/><ORIGINATOR/></header><body><segment><metadata><OBJECT_NAME>IRIDIUM 36</OBJECT_NAME><OBJECT_ID>1997-056C</OBJECT_ID><CENTER_NAME>EARTH</CENTER_NAME><REF_FRAME>TEME</REF_FRAME><TIME_SYSTEM>UTC</TIME_SYSTEM><MEAN_ELEMENT_THEORY>SGP4</MEAN_ELEMENT_THEORY></metadata><data><meanElements><EPOCH>2025-04-27T06:20:44.819232</EPOCH><MEAN_MOTION>14.37565728</MEAN_MOTION><ECCENTRICITY>.0002269</ECCENTRICITY><INCLINATION>86.4028</INCLINATION><RA_OF_ASC_NODE>194.3674</RA_OF_ASC_NODE><ARG_OF_PERICENTER>101.0939</ARG_OF_PERICENTER><MEAN_ANOMALY>259.0513</MEAN_ANOMALY></meanElements><tleParameters><EPHEMERIS_TYPE>0</EPHEMERIS_TYPE><CLASSIFICATION_TYPE>U</CLASSIFICATION_TYPE><NORAD_CAT_ID>24967</NORAD_CAT_ID><ELEMENT_SET_NO>999</ELEMENT_SET_NO><REV_AT_EPOCH>44490</REV_AT_EPOCH><BSTAR>.24303E-3</BSTAR><MEAN_MOTION_DOT>.748E-5</MEAN_MOTION_DOT><MEAN_MOTION_DDOT>0</MEAN_MOTION_DDOT></tleParameters></data></segment></body></omm>

</ndm>
